ONEWEB-0159             
1 48062U 21025W   26146.25180376  .00000388  00000+0  10279-2 0  9990
2 48062  87.8951 324.5827 0001613  98.4864 261.6449 13.13469292250729
ONEWEB-0164             
1 48063U 21025X   26146.23316983 -.00000040  00000+0 -14327-3 0  9990
2 48063  87.8951 324.5926 0001786  89.2165 270.9168 13.13469360250708
ONEWEB-0167             
1 48064U 21025Y   26146.18493666  .00000271  00000+0  70636-3 0  9998
2 48064  87.8940 324.6143 0001112  95.3565 264.7691 13.13470702250685
ONEWEB-0166             
1 48065U 21025Z   26146.20778441 -.00000241  00000+0 -69524-3 0  9992
2 48065  87.8952 324.5790 0001892  97.0400 263.0945 13.13470526250765
ONEWEB-0151             
1 48066U 21025AA  26146.05710925 -.00000342  00000+0 -97039-3 0  9993
2 48066  87.8940 324.6281 0001672  90.2935 269.8386 13.13468158250685
ONEWEB-0170             
1 48067U 21025AB  26146.21793104 -.00000297  00000+0 -84727-3 0  9991
2 48067  87.8940 324.5978 0001640  77.1616 282.9696 13.13468927250665
ONEWEB-0168             
1 48068U 21025AC  26146.20269549 -.00000158  00000+0 -46843-3 0  9995
2 48068  87.8950 324.5989 0001738  97.6917 262.4409 13.13468434250677
ONEWEB-0173             
1 48069U 21025AD  26146.19423671  .00000071  00000+0  16040-3 0  9990
2 48069  87.8946 324.6035 0001487 100.9649 259.1648 13.13468496250910
ONEWEB-0171             
1 48070U 21025AE  26146.23148253 -.00000076  00000+0 -24185-3 0  9993
2 48070  87.8940 324.6046 0001708  90.0539 270.0786 13.13469580250731
ONEWEB-0172             
1 48071U 21025AF  26145.98263508 -.00000246  00000+0 -70967-3 0  9994
2 48071  87.8948 324.6429 0001619  92.9974 267.1340 13.13469599251598
ONEWEB-0174             
1 48072U 21025AG  26146.04020103  .00000024  00000+0  29625-4 0  9993
2 48072  87.8945 324.6312 0001849  95.7032 264.4308 13.13468392250928
ONEWEB-0175             
1 48073U 21025AH  26146.22302026 -.00000230  00000+0 -66510-3 0  9995
2 48073  87.8949 324.5778 0001509  84.3564 275.7737 13.13469225250607
ONEWEB-0177             
1 48074U 21025AJ  26146.00634002  .00000024  00000+0  31091-4 0  9990
2 48074  87.8946 324.6400 0001791  99.5034 260.6298 13.13470088250762
ONEWEB-0178             
1 48075U 21025AK  26146.25363423  .00000370  00000+0  97700-3 0  9996
2 48075  87.8932 324.6065 0001479  91.6497 268.4802 13.13470798250848
ONEWEB-0108             
1 48076U 21025AL  26145.98432231 -.00000269  00000+0 -77057-3 0  9992
2 48076  87.8951 324.6351 0002036  90.6273 269.5090 13.13468579250732
ONEWEB-0169             
1 48077U 21025AM  26146.24502277  .00000370  00000+0  97824-3 0  9996
2 48077  87.8940 324.5929 0001841  95.4575 264.6764 13.13469226249420
