[{"OBJECT_NAME":"ONEWEB-0159","OBJECT_ID":"2021-025W","EPOCH":"2026-05-26T06:02:35.844864","MEAN_MOTION":13.13469292,"ECCENTRICITY":0.0001613,"INCLINATION":87.8951,"RA_OF_ASC_NODE":324.5827,"ARG_OF_PERICENTER":98.4864,"MEAN_ANOMALY":261.6449,"EPHEMERIS_TYPE":0,"CLASSIFICATION_TYPE":"U","NORAD_CAT_ID":48062,"ELEMENT_SET_NO":999,"REV_AT_EPOCH":25072,"BSTAR":0.0010279,"MEAN_MOTION_DOT":3.88e-06,"MEAN_MOTION_DDOT":0.0},{"OBJECT_NAME":"ONEWEB-0164","OBJECT_ID":"2021-025X","EPOCH":"2026-05-26T05:35:45.873312","MEAN_MOTION":13.1346936,"ECCENTRICITY":0.0001786,"INCLINATION":87.8951,"RA_OF_ASC_NODE":324.5926,"ARG_OF_PERICENTER":89.2165,"MEAN_ANOMALY":270.9168,"EPHEMERIS_TYPE":0,"CLASSIFICATION_TYPE":"U","NORAD_CAT_ID":48063,"ELEMENT_SET_NO":999,"REV_AT_EPOCH":25070,"BSTAR":-0.00014327,"MEAN_MOTION_DOT":-4e-07,"MEAN_MOTION_DDOT":0.0},{"OBJECT_NAME":"ONEWEB-0167","OBJECT_ID":"2021-025Y","EPOCH":"2026-05-26T04:26:18.527424","MEAN_MOTION":13.13470702,"ECCENTRICITY":0.0001112,"INCLINATION":87.894,"RA_OF_ASC_NODE":324.6143,"ARG_OF_PERICENTER":95.3565,"MEAN_ANOMALY":264.7691,"EPHEMERIS_TYPE":0,"CLASSIFICATION_TYPE":"U","NORAD_CAT_ID":48064,"ELEMENT_SET_NO":999,"REV_AT_EPOCH":25068,"BSTAR":0.00070636,"MEAN_MOTION_DOT":2.71e-06,"MEAN_MOTION_DDOT":0.0},{"OBJECT_NAME":"ONEWEB-0166","OBJECT_ID":"2021-025Z","EPOCH":"2026-05-26T04:59:12.573024","MEAN_MOTION":13.13470526,"ECCENTRICITY":0.0001892,"INCLINATION":87.8952,"RA_OF_ASC_NODE":324.579,"ARG_OF_PERICENTER":97.04,"MEAN_ANOMALY":263.0945,"EPHEMERIS_TYPE":0,"CLASSIFICATION_TYPE":"U","NORAD_CAT_ID":48065,"ELEMENT_SET_NO":999,"REV_AT_EPOCH":25076,"BSTAR":-0.00069524,"MEAN_MOTION_DOT":-2.41e-06,"MEAN_MOTION_DDOT":0.0},{"OBJECT_NAME":"ONEWEB-0151","OBJECT_ID":"2021-025AA","EPOCH":"2026-05-26T01:22:14.239200","MEAN_MOTION":13.13468158,"ECCENTRICITY":0.0001672,"INCLINATION":87.894,"RA_OF_ASC_NODE":324.6281,"ARG_OF_PERICENTER":90.2935,"MEAN_ANOMALY":269.8386,"EPHEMERIS_TYPE":0,"CLASSIFICATION_TYPE":"U","NORAD_CAT_ID":48066,"ELEMENT_SET_NO":999,"REV_AT_EPOCH":25068,"BSTAR":-0.00097039,"MEAN_MOTION_DOT":-3.42e-06,"MEAN_MOTION_DDOT":0.0},{"OBJECT_NAME":"ONEWEB-0170","OBJECT_ID":"2021-025AB","EPOCH":"2026-05-26T05:13:49.241856","MEAN_MOTION":13.13468927,"ECCENTRICITY":0.000164,"INCLINATION":87.894,"RA_OF_ASC_NODE":324.5978,"ARG_OF_PERICENTER":77.1616,"MEAN_ANOMALY":282.9696,"EPHEMERIS_TYPE":0,"CLASSIFICATION_TYPE":"U","NORAD_CAT_ID":48067,"ELEMENT_SET_NO":999,"REV_AT_EPOCH":25066,"BSTAR":-0.00084727,"MEAN_MOTION_DOT":-2.97e-06,"MEAN_MOTION_DDOT":0.0},{"OBJECT_NAME":"ONEWEB-0168","OBJECT_ID":"2021-025AC","EPOCH":"2026-05-26T04:51:52.890336","MEAN_MOTION":13.13468434,"ECCENTRICITY":0.0001738,"INCLINATION":87.895,"RA_OF_ASC_NODE":324.5989,"ARG_OF_PERICENTER":97.6917,"MEAN_ANOMALY":262.4409,"EPHEMERIS_TYPE":0,"CLASSIFICATION_TYPE":"U","NORAD_CAT_ID":48068,"ELEMENT_SET_NO":999,"REV_AT_EPOCH":25067,"BSTAR":-0.00046843000000000004,"MEAN_MOTION_DOT":-1.58e-06,"MEAN_MOTION_DDOT":0.0},{"OBJECT_NAME":"ONEWEB-0173","OBJECT_ID":"2021-025AD","EPOCH":"2026-05-26T04:39:42.051744","MEAN_MOTION":13.13468496,"ECCENTRICITY":0.0001487,"INCLINATION":87.8946,"RA_OF_ASC_NODE":324.6035,"ARG_OF_PERICENTER":100.9649,"MEAN_ANOMALY":259.1648,"EPHEMERIS_TYPE":0,"CLASSIFICATION_TYPE":"U","NORAD_CAT_ID":48069,"ELEMENT_SET_NO":999,"REV_AT_EPOCH":25091,"BSTAR":0.0001604,"MEAN_MOTION_DOT":7.1e-07,"MEAN_MOTION_DDOT":0.0},{"OBJECT_NAME":"ONEWEB-0171","OBJECT_ID":"2021-025AE","EPOCH":"2026-05-26T05:33:20.090592","MEAN_MOTION":13.1346958,"ECCENTRICITY":0.0001708,"INCLINATION":87.894,"RA_OF_ASC_NODE":324.6046,"ARG_OF_PERICENTER":90.0539,"MEAN_ANOMALY":270.0786,"EPHEMERIS_TYPE":0,"CLASSIFICATION_TYPE":"U","NORAD_CAT_ID":48070,"ELEMENT_SET_NO":999,"REV_AT_EPOCH":25073,"BSTAR":-0.00024185000000000002,"MEAN_MOTION_DOT":-7.6e-07,"MEAN_MOTION_DDOT":0.0},{"OBJECT_NAME":"ONEWEB-0172","OBJECT_ID":"2021-025AF","EPOCH":"2026-05-25T23:34:59.670912","MEAN_MOTION":13.13469599,"ECCENTRICITY":0.0001619,"INCLINATION":87.8948,"RA_OF_ASC_NODE":324.6429,"ARG_OF_PERICENTER":92.9974,"MEAN_ANOMALY":267.134,"EPHEMERIS_TYPE":0,"CLASSIFICATION_TYPE":"U","NORAD_CAT_ID":48071,"ELEMENT_SET_NO":999,"REV_AT_EPOCH":25159,"BSTAR":-0.00070967,"MEAN_MOTION_DOT":-2.46e-06,"MEAN_MOTION_DDOT":0.0},{"OBJECT_NAME":"ONEWEB-0174","OBJECT_ID":"2021-025AG","EPOCH":"2026-05-26T00:57:53.368992","MEAN_MOTION":13.13468392,"ECCENTRICITY":0.0001849,"INCLINATION":87.8945,"RA_OF_ASC_NODE":324.6312,"ARG_OF_PERICENTER":95.7032,"MEAN_ANOMALY":264.4308,"EPHEMERIS_TYPE":0,"CLASSIFICATION_TYPE":"U","NORAD_CAT_ID":48072,"ELEMENT_SET_NO":999,"REV_AT_EPOCH":25092,"BSTAR":2.9625000000000002e-05,"MEAN_MOTION_DOT":2.4e-07,"MEAN_MOTION_DDOT":0.0},{"OBJECT_NAME":"ONEWEB-0175","OBJECT_ID":"2021-025AH","EPOCH":"2026-05-26T05:21:08.950464","MEAN_MOTION":13.13469225,"ECCENTRICITY":0.0001509,"INCLINATION":87.8949,"RA_OF_ASC_NODE":324.5778,"ARG_OF_PERICENTER":84.3564,"MEAN_ANOMALY":275.7737,"EPHEMERIS_TYPE":0,"CLASSIFICATION_TYPE":"U","NORAD_CAT_ID":48073,"ELEMENT_SET_NO":999,"REV_AT_EPOCH":25060,"BSTAR":-0.0006651000000000001,"MEAN_MOTION_DOT":-2.3e-06,"MEAN_MOTION_DDOT":0.0},{"OBJECT_NAME":"ONEWEB-0177","OBJECT_ID":"2021-025AJ","EPOCH":"2026-05-26T00:09:07.777728","MEAN_MOTION":13.13470088,"ECCENTRICITY":0.0001791,"INCLINATION":87.8946,"RA_OF_ASC_NODE":324.64,"ARG_OF_PERICENTER":99.5034,"MEAN_ANOMALY":260.6298,"EPHEMERIS_TYPE":0,"CLASSIFICATION_TYPE":"U","NORAD_CAT_ID":48074,"ELEMENT_SET_NO":999,"REV_AT_EPOCH":25076,"BSTAR":3.1091000000000004e-05,"MEAN_MOTION_DOT":2.4e-07,"MEAN_MOTION_DDOT":0.0},{"OBJECT_NAME":"ONEWEB-0178","OBJECT_ID":"2021-025AK","EPOCH":"2026-05-26T06:05:13.997472","MEAN_MOTION":13.13470798,"ECCENTRICITY":0.0001479,"INCLINATION":87.8932,"RA_OF_ASC_NODE":324.6065,"ARG_OF_PERICENTER":91.6497,"MEAN_ANOMALY":268.4802,"EPHEMERIS_TYPE":0,"CLASSIFICATION_TYPE":"U","NORAD_CAT_ID":48075,"ELEMENT_SET_NO":999,"REV_AT_EPOCH":25084,"BSTAR":0.000977,"MEAN_MOTION_DOT":3.7e-06,"MEAN_MOTION_DDOT":0.0},{"OBJECT_NAME":"ONEWEB-0108","OBJECT_ID":"2021-025AL","EPOCH":"2026-05-25T23:37:25.447584","MEAN_MOTION":13.13468579,"ECCENTRICITY":0.0002036,"INCLINATION":87.8951,"RA_OF_ASC_NODE":324.6351,"ARG_OF_PERICENTER":90.6273,"MEAN_ANOMALY":269.509,"EPHEMERIS_TYPE":0,"CLASSIFICATION_TYPE":"U","NORAD_CAT_ID":48076,"ELEMENT_SET_NO":999,"REV_AT_EPOCH":25073,"BSTAR":-0.00077057,"MEAN_MOTION_DOT":-2.69e-06,"MEAN_MOTION_DDOT":0.0},{"OBJECT_NAME":"ONEWEB-0169","OBJECT_ID":"2021-025AM","EPOCH":"2026-05-26T05:52:49.967328","MEAN_MOTION":13.13469226,"ECCENTRICITY":0.0001841,"INCLINATION":87.894,"RA_OF_ASC_NODE":324.5929,"ARG_OF_PERICENTER":95.4575,"MEAN_ANOMALY":264.6764,"EPHEMERIS_TYPE":0,"CLASSIFICATION_TYPE":"U","NORAD_CAT_ID":48077,"ELEMENT_SET_NO":999,"REV_AT_EPOCH":24942,"BSTAR":0.00097824,"MEAN_MOTION_DOT":3.7e-06,"MEAN_MOTION_DDOT":0.0}]